ONEWEB-0607             
1 54671U 22166AF  25167.13352807  .00000057  00000+0  10723-3 0  9997
2 54671  87.9260 316.9772 0001670  96.5724 263.5600 13.21826409123182
ONEWEB-0608             
1 54672U 22166AG  25167.36693706  .00000091  00000+0  18810-3 0  9992
2 54672  87.9242 316.9221 0001321  89.5993 270.5292 13.21825966123222
ONEWEB-0610             
1 54673U 22166AH  25167.34799973  .00000061  00000+0  11689-3 0  9998
2 54673  87.9260 316.9540 0001478  87.3341 272.7962 13.21827425123122
ONEWEB-0611             
1 54674U 22166AJ  25167.34169792  .00000094  00000+0  19678-3 0  9991
2 54674  87.9259 316.9523 0002080 100.6428 259.4940 13.21826666123110
ONEWEB-0612             
1 54675U 22166AK  25167.43001908  .00000035  00000+0  52928-4 0  9997
2 54675  87.9257 316.9125 0001639  94.4671 265.6651 13.21826362123117
ONEWEB-0615             
1 54676U 22166AL  25167.10829678  .00000088  00000+0  18044-3 0  9992
2 54676  87.9258 317.0027 0001850  97.8084 262.3260 13.21825601123083
ONEWEB-0655             
1 54677U 22166AM  25167.38428005  .00000073  00000+0  14478-3 0  9993
2 54677  87.9261 316.9519 0001631 105.9830 254.1484 13.21822812123111
ONEWEB-0659             
1 54678U 22166AN  25166.94745284 -.00000087  00000+0 -24123-3 0  9991
2 54678  87.9257 317.0407 0001992  94.4684 265.6677 13.21826341123149
